ORBCOMM FM37 [-]        
1 33064U 08031E   23258.21926480  .00002135  00000+0  34376-3 0  9996
2 33064  48.4404 138.7434 0005916 156.2944 356.4105 14.75038083819285
ORBCOMM FM40 [-]        
1 33065U 08031F   23258.20112323  .00002546  00000+0  39489-3 0  9995
2 33065  48.4426 130.2335 0007386 163.3290 346.5853 14.76053786819292
VESSELSAT 1 [-]         
1 37840U 11058C   23258.62104853  .00000403  00000+0  76011-4 0  9991
2 37840  19.9635   8.9829 0013753 342.6964  17.2971 14.11058819615946
ORBCOMM FM109 [+]       
1 40086U 14040A   23258.22241214  .00001435  00000+0  36133-3 0  9996
2 40086  47.0036 157.7797 0002372 260.3162  99.7455 14.55897330487594
ORBCOMM FM107 [+]       
1 40087U 14040B   23258.18797449  .00001322  00000+0  33590-3 0  9997
2 40087  47.0054 158.8696 0001579 230.0023 130.0723 14.55895681487665
ORBCOMM FM106 [-]       
1 40088U 14040C   23258.48235193  .00001522  00000+0  30774-3 0  9997
2 40088  47.0631  27.8948 0018325 334.2626  25.7350 14.65971697489363
ORBCOMM FM111 [-]       
1 40089U 14040D   23258.52632566  .00002213  00000+0  31459-3 0  9997
2 40089  47.0056 316.0520 0033290  17.0559 343.1446 14.79913424495148
ORBCOMM FM104 [-]       
1 40090U 14040E   23258.26400107  .00001059  00000+0  28484-3 0  9995
2 40090  47.0052 184.8211 0016755 161.8479 198.3006 14.54457555487256
